H1 CPF  1  MCC 2022  9 29 12  7721 larets
H2  0304206 5557    27944 2022 09 28 23 45 00 2022 10 03 23 57 00   180 1 1  0 0 0
H9
10 0 59852 27900.000000 0      1171501.232     -1591802.630     -6779263.182
10 0 59852 28080.000000 0      1215747.423     -2878330.376     -6331638.756
10 0 59852 28260.000000 0      1183500.396     -4060625.290     -5652723.317
10 0 59852 28440.000000 0      1079198.315     -5093660.906     -4767039.718
10 0 59852 28620.000000 0       911010.138     -5937871.803     -3706735.427
10 0 59852 28800.000000 0       690391.096     -6560734.028     -2510465.749
10 0 59852 28980.000000 0       431474.430     -6938099.983     -1222006.403
10 0 59852 29160.000000 0       150325.906     -7055215.946       111362.303
10 0 59852 29340.000000 0      -135904.123     -6907356.134      1440635.355
10 0 59852 29520.000000 0      -409885.446     -6500037.389      2716945.752
10 0 59852 29700.000000 0      -655020.420     -5848795.908      3893428.396
10 0 59852 29880.000000 0      -856312.890     -4978533.222      4926987.355
10 0 59852 30060.000000 0     -1001149.518     -3922486.887      5779886.112
10 0 59852 30240.000000 0     -1079953.755     -2720883.174      6421109.905
10 0 59852 30420.000000 0     -1086683.369     -1419337.188      6827448.644
10 0 59852 30600.000000 0     -1019152.886       -67087.463      6984278.829
10 0 59852 30780.000000 0      -879175.102      1284875.172      6886043.602
10 0 59852 30960.000000 0      -672512.124      2585721.926      6536421.758
10 0 59852 31140.000000 0      -408637.766      3786682.336      5948186.904
10 0 59852 31320.000000 0      -100323.428      4842864.801      5142761.802
10 0 59852 31500.000000 0       236939.254      5714945.206      4149475.832
10 0 59852 31680.000000 0       585658.700      6370662.217      3004535.396
10 0 59852 31860.000000 0       927177.064      6786063.314      1749738.763
10 0 59852 32040.000000 0      1242585.548      6946439.980       430948.600
10 0 59852 32220.000000 0      1513671.006      6846883.524      -903605.500
10 0 59852 32400.000000 0      1723846.092      6492442.646     -2205122.485
10 0 59852 32580.000000 0      1859013.348      5897875.679     -3426047.198
10 0 59852 32760.000000 0      1908321.311      5087009.263     -4521834.394
10 0 59852 32940.000000 0      1864774.148      4091733.660     -5452580.760
10 0 59852 33120.000000 0      1725665.009      2950695.636     -6184456.049
10 0 59852 33300.000000 0      1492815.894      1707758.759     -6690891.852
10 0 59852 33480.000000 0      1172616.216       410300.333     -6953495.693
10 0 59852 33660.000000 0       775861.736      -892587.333     -6962679.236
10 0 59852 33840.000000 0       317395.201     -2151934.465     -6717987.819
10 0 59852 34020.000000 0      -184436.745     -3320707.503     -6228131.000
10 0 59852 34200.000000 0      -708498.538     -4355557.158     -5510717.208
10 0 59852 34380.000000 0     -1231730.719     -5218444.339     -4591679.554
10 0 59852 34560.000000 0     -1730137.818     -5878086.770     -3504401.183
10 0 59852 34740.000000 0     -2179862.882     -6311164.244     -2288547.604
10 0 59852 34920.000000 0     -2558299.225     -6503221.689      -988636.641
10 0 59852 35100.000000 0     -2845185.145     -6449219.798       347610.817
10 0 59852 35280.000000 0     -3023622.119     -6153689.212      1671074.398
10 0 59852 35460.000000 0     -3080958.400     -5630473.325      2933106.112
10 0 59852 35640.000000 0     -3009488.537     -4902073.308      4087380.412
10 0 59852 35820.000000 0     -2806932.037     -3998636.651      5091634.160
10 0 59852 36000.000000 0     -2476672.539     -2956648.710      5909223.234
10 0 59852 36180.000000 0     -2027746.943     -1817399.094      6510436.519
10 0 59852 36360.000000 0     -1474589.820      -625305.037      6873530.633
10 0 59852 36540.000000 0      -836549.649       573842.382      6985461.485
10 0 59852 36720.000000 0      -137202.277      1734634.168      6842302.774
10 0 59852 36900.000000 0       596521.058      2813749.376      6449361.052
10 0 59852 37080.000000 0      1335364.543      3771558.547      5820979.655
10 0 59852 37260.000000 0      2048900.849      4573575.623      4980040.692
10 0 59852 37440.000000 0      2706771.507      5191715.635      3957171.173
10 0 59852 37620.000000 0      3279969.019      5605307.054      2789666.408
10 0 59852 37800.000000 0      3742109.606      5801824.658      1520157.597
10 0 59852 37980.000000 0      4070633.798      5777295.150       195050.779
10 0 59852 38160.000000 0      4247869.815      5536349.398     -1137191.871
10 0 59852 38340.000000 0      4261909.376      5091916.735     -2427858.017
10 0 59852 38520.000000 0      4107248.084      4464579.896     -3629799.966
10 0 59852 38700.000000 0      3785154.488      3681622.499     -4699180.214
10 0 59852 38880.000000 0      3303754.968      2775822.970     -5597069.284
10 0 59852 39060.000000 0      2677835.079      1784059.468     -6290839.475
10 0 59852 39240.000000 0      1928369.123       745792.856     -6755307.230
10 0 59852 39420.000000 0      1081805.023      -298502.463     -6973595.637
10 0 59852 39600.000000 0       169132.579     -1308901.067     -6937711.741
10 0 59852 39780.000000 0      -775239.461     -2247533.463     -6648823.762
10 0 59852 39960.000000 0     -1714758.997     -3079988.819     -6117241.149
10 0 59852 40140.000000 0     -2612126.583     -3776578.875     -5362091.777
10 0 59852 40320.000000 0     -3430768.027     -4313419.992     -4410697.412
10 0 59852 40500.000000 0     -4136338.343     -4673296.365     -3297645.981
10 0 59852 40680.000000 0     -4698189.279     -4846259.373     -2063573.951
10 0 59852 40860.000000 0     -5090733.051     -4829930.988      -753692.219
10 0 59852 41040.000000 0     -5294629.307     -4629488.497       583894.873
10 0 59852 41220.000000 0     -5297728.047     -4257325.388      1900009.862
10 0 59852 41400.000000 0     -5095709.833     -3732397.490      3146279.424
10 0 59852 41580.000000 0     -4692387.360     -3079290.373      4276971.772
10 0 59852 41760.000000 0     -4099657.422     -2327063.960      5250710.963
10 0 59852 41940.000000 0     -3337111.079     -1507939.244      6031991.413
10 0 59852 42120.000000 0     -2431336.037      -655901.699      6592444.039
10 0 59852 42300.000000 0     -1414940.145       194721.062      6911821.704
10 0 59852 42480.000000 0      -325342.818      1010640.390      6978671.796
10 0 59852 42660.000000 0       796610.233      1760895.319      6790702.334
10 0 59852 42840.000000 0      1908170.986      2418015.547      6354840.427
10 0 59852 43020.000000 0      2966304.180      2959017.928      5686981.953
10 0 59852 43200.000000 0      3929344.926      3366209.841      4811443.265
10 0 59852 43380.000000 0      4758643.285      3627774.882      3760115.117
10 0 59852 43560.000000 0      5420135.437      3738118.669      2571341.767
10 0 59852 43740.000000 0      5885776.436      3697956.382      1288540.008
10 0 59852 43920.000000 0      6134755.523      3514132.935       -41390.432
10 0 59852 44100.000000 0      6154434.522      3199182.601     -1369808.199
10 0 59852 44280.000000 0      5940954.786      2770646.178     -2648145.057
10 0 59852 44460.000000 0      5499482.591      2250186.168     -3829713.127
10 0 59852 44640.000000 0      4844085.377      1662544.086     -4871429.815
10 0 59852 44820.000000 0      3997243.064      1034392.144     -5735386.311
10 0 59852 45000.000000 0      2989029.118       393143.452     -6390195.429
10 0 59852 45180.000000 0      1856005.812      -234223.557     -6812086.436
10 0 59852 45360.000000 0       639883.250      -822279.060     -6985719.493
10 0 59852 45540.000000 0      -614009.971     -1348154.803     -6904710.952
10 0 59852 45720.000000 0     -1858395.853     -1792420.019     -6571857.985
10 0 59852 45900.000000 0     -3045806.077     -2139796.661     -5999064.659
10 0 59852 46080.000000 0     -4130378.354     -2379691.331     -5206964.056
10 0 59852 46260.000000 0     -5069640.677     -2506529.453     -4224241.476
10 0 59852 46440.000000 0     -5826217.756     -2519874.520     -3086653.400
10 0 59852 46620.000000 0     -6369382.852     -2424322.478     -1835762.107
10 0 59852 46800.000000 0     -6676377.375     -2229170.545      -517419.643
10 0 59852 46980.000000 0     -6733424.344     -1947872.529       819944.027
10 0 59852 47160.000000 0     -6536374.561     -1597304.562      2127157.504
10 0 59852 47340.000000 0     -6090941.979     -1196880.039      3356183.768
10 0 59852 47520.000000 0     -5412516.522      -767562.900      4461942.582
10 0 59852 47700.000000 0     -4525566.807      -330832.432      5403995.903
10 0 59852 47880.000000 0     -3462678.846        92342.102      6148019.382
10 0 59852 48060.000000 0     -2263287.816       482468.285      6667021.164
10 0 59852 48240.000000 0      -972159.007       822393.125      6942270.393
10 0 59852 48420.000000 0       362311.160      1098029.103      6963918.234
10 0 59852 48600.000000 0      1689908.933      1298920.477      6731308.043
10 0 59852 48780.000000 0      2960477.435      1418632.397      6252978.826
10 0 59852 48960.000000 0      4125797.116      1454950.647      5546364.123
10 0 59852 49140.000000 0      5141414.206      1409886.926      4637188.158
10 0 59852 49320.000000 0      5968355.136      1289492.047      3558574.159
10 0 59852 49500.000000 0      6574666.209      1103483.453      2349870.867
10 0 59852 49680.000000 0      6936697.601       864699.126      1055231.688
10 0 59852 49860.000000 0      7040075.002       588404.390      -278004.937
10 0 59852 50040.000000 0      6880302.429       291483.617     -1601074.498
10 0 59852 50220.000000 0      6462957.942        -8442.291     -2865608.456
10 0 59852 50400.000000 0      5803474.560      -293926.890     -4025433.729
10 0 59852 50580.000000 0      4926521.716      -548588.773     -5038274.706
10 0 59852 50760.000000 0      3865021.849      -757934.392     -5867283.719
99
